OBJECT_NAME,OBJECT_ID,EPOCH,MEAN_MOTION,ECCENTRICITY,INCLINATION,RA_OF_ASC_NODE,ARG_OF_PERICENTER,MEAN_ANOMALY,EPHEMERIS_TYPE,CLASSIFICATION_TYPE,NORAD_CAT_ID,ELEMENT_SET_NO,REV_AT_EPOCH,BSTAR,MEAN_MOTION_DOT,MEAN_MOTION_DDOT
STARLINK-34618,2025-147R,2026-06-16T15:13:57.385344,15.34401895,.0001258,53.1572,141.5348,89.5929,270.5218,0,U,64770,999,5385,.60375E-3,.20078E-3,0
STARLINK-34541,2025-147S,2026-06-16T15:38:11.653728,15.34421305,.0001087,53.1596,141.6381,78.7780,281.3344,0,U,64771,999,5385,.40926E-3,.13485E-3,0
STARLINK-34652,2025-147T,2026-06-16T15:47:16.416096,15.34384016,.0001303,53.1599,141.6766,75.9704,284.1443,0,U,64772,999,5392,.46292E-3,.15288E-3,0
STARLINK-34612,2025-147U,2026-06-16T15:29:06.195840,15.34408893,.0001229,53.1587,141.5980,81.8119,278.3022,0,U,64773,999,5392,.55417E-3,.18398E-3,0
STARLINK-34621,2025-147V,2026-06-16T05:20:04.318944,15.30205124,.0001063,53.1582,145.3491,96.4162,263.6960,0,U,64774,999,5376,.5297E-3,.15364E-3,0
STARLINK-34657,2025-147W,2026-06-16T05:05:51.611424,15.34413365,.00010423,53.1584,143.8741,57.0069,303.1034,0,U,64775,999,5385,.85109852E-3,.28501E-3,0
STARLINK-34637,2025-147X,2026-06-16T05:24:02.579904,15.34387996,.00011312,53.1567,143.9465,78.2431,281.8698,0,U,64776,999,5378,.5778053E-3,.19188E-3,0
STARLINK-34547,2025-147Y,2026-06-16T06:00:16.193952,15.34393698,.0001025,53.1586,143.3962,95.2317,264.8802,0,U,64777,999,5380,.53716E-3,.17812E-3,0
STARLINK-34537,2025-147Z,2026-06-16T14:28:27.372576,15.30208283,.0000835,53.1609,120.4288,66.3507,293.7581,0,U,64778,999,5424,.52671E-3,.15277E-3,0
STARLINK-34585,2025-147AA,2026-06-16T05:21:00.635328,15.34397705,.00011046,53.1575,143.9327,74.6481,285.4644,0,U,64779,999,5380,.49729291E-3,.16461E-3,0
STARLINK-34491,2025-147AB,2026-06-16T15:20:00.864096,15.34399975,.0001305,53.1594,141.5521,85.2039,274.9113,0,U,64780,999,5392,.68115E-3,.22707E-3,0
STARLINK-34582,2025-147AC,2026-06-16T15:10:54.086016,15.34413587,.0001289,53.1563,141.5140,102.1260,257.9887,0,U,64781,999,5385,.77933E-4,.2259E-4,0
STARLINK-34482,2025-147AD,2026-06-16T05:11:55.159296,15.34400373,.0001231,53.1585,143.8963,96.2301,263.8842,0,U,64782,999,5389,.40986E-3,.13497E-3,0
STARLINK-34629,2025-150A,2026-06-16T15:42:46.920672,14.98334778,.0003618,69.9999,244.8184,270.1282,89.9462,0,U,64790,999,5134,.15584E-3,.1767E-4,0
STARLINK-34697,2025-150B,2026-06-16T14:12:25.153056,14.98335580,.0003749,70.0000,244.9946,270.7414,89.3316,0,U,64791,999,5133,.17885E-3,.2042E-4,0
STARLINK-34632,2025-150C,2026-06-16T13:12:34.800192,14.98328779,.0003592,70.0002,245.1322,267.5957,92.4791,0,U,64792,999,5132,.19347E-3,.2216E-4,0
STARLINK-34693,2025-150D,2026-06-16T15:18:46.631808,14.98336285,.0003528,70.0001,245.1534,269.6949,90.3805,0,U,64793,999,5133,.24317E-3,.281E-4,0
STARLINK-34666,2025-150E,2026-06-16T15:18:32.427648,14.98337171,.0003476,70.0001,245.1591,270.0492,90.0269,0,U,64794,999,5133,.25719E-3,.2978E-4,0
STARLINK-34567,2025-150F,2026-06-16T15:30:31.436352,14.98326686,.0003643,70.0004,244.7859,265.5984,94.4759,0,U,64795,999,5134,-.42228E-4,-.597E-5,0
STARLINK-34646,2025-150G,2026-06-16T13:18:36.042912,14.98335858,.0003572,69.9999,245.2613,268.2295,91.8455,0,U,64796,999,5221,.27237E-3,.3159E-4,0
STARLINK-34641,2025-150H,2026-06-16T14:24:26.535168,14.98334782,.0003659,70.0000,245.0227,268.7849,91.2891,0,U,64797,999,5216,.29105E-3,.3382E-4,0
STARLINK-34649,2025-150J,2026-06-16T13:18:21.845664,14.98334423,.0003657,70.0000,245.2684,269.6775,90.3965,0,U,64798,999,5221,.24068E-3,.278E-4,0
STARLINK-34662,2025-150K,2026-06-16T15:30:45.700128,14.98334728,.0003472,70.0000,244.7874,269.7668,90.3093,0,U,64799,999,5134,.19935E-3,.2287E-4,0
STARLINK-34660,2025-150L,2026-06-16T14:18:25.835040,14.98336085,.000363,70.0003,245.0102,267.6235,92.4508,0,U,64800,999,5133,.2349E-3,.2711E-4,0
STARLINK-34604,2025-150M,2026-06-16T14:36:27.654624,14.98334074,.0003144,69.9997,245.0518,269.5162,90.5637,0,U,64801,999,5133,.1215E-3,.1357E-4,0
STARLINK-34658,2025-150N,2026-06-16T13:36:23.533920,14.98386090,.000359,70.0004,245.3062,269.1830,90.8917,0,U,64802,999,5132,.16795E-2,.20033E-3,0
STARLINK-34620,2025-150P,2026-06-16T13:36:37.916064,14.98337674,.0003696,70.0000,245.3053,268.5312,91.5424,0,U,64803,999,5132,.30241E-3,.3518E-4,0
STARLINK-34633,2025-150Q,2026-06-16T14:30:41.543136,14.98333769,.0003503,70.0008,245.0348,267.0738,93.0020,0,U,64804,999,5133,.2237E-3,.2577E-4,0
STARLINK-34624,2025-150R,2026-06-16T13:24:23.966208,14.98339715,.0003389,70.0000,245.2798,266.6079,93.4692,0,U,64805,999,5132,.41021E-3,.4806E-4,0
STARLINK-34664,2025-150S,2026-06-16T15:24:30.731040,14.98335097,.0003229,70.0002,244.7672,269.6740,90.4049,0,U,64806,999,5134,.13447E-3,.1512E-4,0
STARLINK-34663,2025-150T,2026-06-16T14:42:28.518048,14.98334405,.0003815,69.9997,245.0686,268.6769,91.3953,0,U,64807,999,5133,.19489E-3,.2233E-4,0
STARLINK-34696,2025-150U,2026-06-16T13:12:22.533120,14.98329503,.000378,69.9998,245.2480,268.8062,91.2664,0,U,64808,999,5132,.36413E-3,.4254E-4,0
STARLINK-34675,2025-150V,2026-06-16T14:30:27.231840,14.98335145,.0003703,70.0000,245.0402,268.1733,91.9002,0,U,64809,999,5133,.27301E-3,.3167E-4,0
STARLINK-34608,2025-150W,2026-06-16T14:06:24.554880,14.98335178,.000343,70.0000,244.9819,270.2688,89.8078,0,U,64810,999,5133,.1702E-3,.1939E-4,0
STARLINK-34669,2025-150X,2026-06-16T15:36:31.860000,14.98335902,.0003557,70.0000,244.7940,269.7837,90.2914,0,U,64811,999,5134,.1695E-3,.193E-4,0
STARLINK-34644,2025-150Y,2026-06-16T13:24:38.073600,14.98324333,.0003693,69.9999,245.2316,268.0154,92.0582,0,U,64812,999,5132,.28549E-3,.3315E-4,0
STARLINK-34685,2025-150Z,2026-06-16T15:24:47.348352,14.98335081,.0003209,70.0002,245.1649,268.7554,91.3237,0,U,64813,999,5133,.17437E-3,.1988E-4,0
STARLINK-34668,2025-150AA,2026-06-16T14:12:40.392288,14.98320517,.0003632,70.0000,244.9887,274.4958,85.5786,0,U,64814,999,5132,.30665E-3,.3567E-4,0
STARLINK-34667,2025-150AB,2026-06-16T14:36:42.228576,14.98332994,.0003155,69.9999,245.0463,266.0057,94.0742,0,U,64815,999,5133,.16244E-3,.1846E-4,0
STARLINK-34723,2025-152A,2026-06-16T20:21:46.188000,15.05659347,.0002708,97.3524,22.1962,86.2862,273.8676,0,U,64842,999,5033,.23122E-3,.3281E-4,0
STARLINK-34725,2025-152B,2026-06-16T19:57:50.779008,15.05659416,.0002377,97.3522,22.2258,80.1271,280.0225,0,U,64843,999,5033,.19554E-3,.2766E-4,0
STARLINK-34709,2025-152C,2026-06-16T20:01:50.029248,15.05659943,.0002272,97.3528,22.2162,82.6202,277.5283,0,U,64844,999,5033,.29856E-3,.4254E-4,0
STARLINK-34706,2025-152D,2026-06-16T20:17:46.877280,15.05660078,.0002217,97.3530,22.2002,89.6256,270.5225,0,U,64845,999,5033,.26716E-3,.3801E-4,0
STARLINK-34736,2025-152E,2026-06-16T21:01:39.037728,15.05661748,.0002214,97.3534,22.3059,84.7552,275.3928,0,U,64846,999,5034,.17048E-3,.2404E-4,0
STARLINK-34746,2025-152F,2026-06-16T21:09:37.562400,15.05663643,.0002269,97.3530,22.3067,78.9178,281.2304,0,U,64847,999,5034,.38213E-3,.5463E-4,0
STARLINK-34748,2025-152G,2026-06-16T20:49:43.222368,15.05662708,.0002407,97.3525,22.3251,81.2424,278.9076,0,U,64848,999,5034,.38065E-3,.5441E-4,0
STARLINK-34756,2025-152H,2026-06-16T13:15:06.733728,15.05661815,.0002243,97.3524,22.0043,100.6964,259.4516,0,U,64849,999,5029,.15063E-3,.2117E-4,0
STARLINK-34757,2025-152J,2026-06-16T13:27:04.405824,15.05658715,.0002426,97.3532,21.9710,91.1211,269.0294,0,U,64850,999,5029,.18392E-3,.2598E-4,0
STARLINK-34722,2025-152K,2026-06-16T20:05:49.337376,15.05656393,.0002388,97.3531,22.2117,83.1960,276.9539,0,U,64851,999,5033,.15302E-3,.2152E-4,0
STARLINK-34564,2025-152L,2026-06-16T13:19:05.884608,15.05662428,.0001824,97.3535,21.9831,80.5813,279.5620,0,U,64852,999,5029,.19672E-3,.2783E-4,0
STARLINK-34676,2025-152M,2026-06-16T13:47:00.583584,15.05659296,.0003038,97.3535,21.9536,83.8332,276.3241,0,U,64853,999,5029,.26011E-3,.3699E-4,0
STARLINK-34682,2025-152N,2026-06-16T20:37:44.127264,15.05659843,.000291,97.3540,22.3422,85.0470,275.1090,0,U,64854,999,5034,.26641E-3,.379E-4,0
STARLINK-34631,2025-152P,2026-06-16T13:23:05.202240,15.05661208,.000243,97.3529,21.9775,78.4414,281.7087,0,U,64855,999,5029,.32499E-3,.4636E-4,0
STARLINK-34578,2025-152Q,2026-06-16T20:29:45.695040,15.05658874,.0002713,97.3516,22.3519,85.2130,274.9407,0,U,64856,999,5034,.19536E-3,.2763E-4,0
STARLINK-34683,2025-152R,2026-06-16T21:05:38.535072,15.05658646,.0002385,97.3533,22.3149,84.9424,275.2076,0,U,64857,999,5034,.31242E-3,.4454E-4,0
STARLINK-34654,2025-152S,2026-06-16T20:33:44.811360,15.05659758,.0002809,97.3535,22.3328,80.7335,279.4210,0,U,64858,999,5034,.2558E-3,.3636E-4,0
STARLINK-34575,2025-152T,2026-06-16T20:25:47.842752,15.05663918,.0001691,97.3531,22.3469,86.8862,273.2558,0,U,64859,999,5034,.30067E-3,.4285E-4,0
STARLINK-34570,2025-152U,2026-06-16T13:50:59.845056,15.05658513,.0002922,97.3518,21.9609,85.1420,275.0141,0,U,64860,999,5029,.26795E-3,.3812E-4,0
STARLINK-34651,2025-152V,2026-06-16T19:53:53.497824,15.05652528,.0002288,97.3535,22.2445,86.0385,274.1104,0,U,64861,999,5033,.29014E-3,.4132E-4,0
STARLINK-34684,2025-152W,2026-06-16T20:53:40.920000,15.05657383,.0001689,97.3529,22.3296,85.4459,274.6961,0,U,64862,999,5034,.17594E-3,.2483E-4,0
STARLINK-34690,2025-152X,2026-06-16T20:41:43.260000,15.05657460,.000246,97.3528,22.3401,84.5929,275.5579,0,U,64863,999,5034,.2931E-3,.4175E-4,0
STARLINK-34628,2025-152Y,2026-06-16T20:57:39.938688,15.05656423,.0002082,97.3526,22.3191,86.7601,273.3864,0,U,64864,999,5034,.22188E-3,.3146E-4,0
STARLINK-34544,2025-152Z,2026-06-16T20:45:43.419168,15.05664970,.0002187,97.3519,22.3291,88.5731,271.5747,0,U,64865,999,5034,.27221E-3,.3874E-4,0
STARLINK-34647,2025-157A,2026-06-16T12:55:08.529888,15.34401085,.00014171,53.1597,246.1317,56.3717,303.7421,0,U,64904,999,5125,.32259201E-3,.10539E-3,0
STARLINK-34273,2025-157B,2026-06-16T11:09:13.432320,15.34416677,.00009387,53.1590,246.3785,98.1316,261.9793,0,U,64905,999,5126,.95954903E-3,.322E-3,0
STARLINK-34713,2025-157C,2026-06-16T20:00:01.999008,15.33567400,.0000996,53.1583,245.0587,86.2555,306.6421,0,U,64906,999,585,-.62703E-3,-.20949E-3,0
